*******************************************************************************
Ephemeris / WWW_USER Mon Mar 26 22:18:37 2018 Pasadena, USA      / Horizons    
*******************************************************************************
Target body name: Hydra (903)                     {source: plu055l_merged}
Center body name: Solar System Barycenter (0)     {source: DE431mx}
Center-site name: BODY CENTER
*******************************************************************************
Start time      : A.D. 2000-Jan-01 00:00:00.0000 TDB
Stop  time      : A.D. 2005-Jan-01 00:00:00.0000 TDB
Step-size       : 7200 minutes
*******************************************************************************
Center geodetic : 0.00000000,0.00000000,0.0000000 {E-lon(deg),Lat(deg),Alt(km)}
Center cylindric: 0.00000000,0.00000000,0.0000000 {E-lon(deg),Dxy(km),Dz(km)}
Center radii    : (undefined)                                                  
Output units    : AU-D                                                         
Output type     : GEOMETRIC cartesian states
Output format   : 2 (position and velocity)
Reference frame : ICRF/J2000.0                                                 
Coordinate systm: Ecliptic and Mean Equinox of Reference Epoch                 
*******************************************************************************
JDTDB
   X     Y     Z
   VX    VY    VZ
*******************************************************************************
$$SOE
2452174.500000000 = A.D. 2001-Sep-22 00:00:00.0000 TDB 
  -7.953226332518444E+00 -2.887462518309156E+01  5.390579086740966E+00
   3.126940635273152E-03 -1.299777486634182E-03 -7.198041247818247E-04
2452179.500000000 = A.D. 2001-Sep-27 00:00:00.0000 TDB 
  -7.937531411973461E+00 -2.888113622317116E+01  5.386850259789775E+00
   3.145878318406410E-03 -1.310436820202796E-03 -7.719434298445482E-04
2452184.500000000 = A.D. 2001-Oct-02 00:00:00.0000 TDB 
  -7.921822579140560E+00 -2.888777602100690E+01  5.382882044055112E+00
   3.132243063209799E-03 -1.348252089684927E-03 -8.102762183953342E-04
2452189.500000000 = A.D. 2001-Oct-07 00:00:00.0000 TDB 
  -7.906249120523187E+00 -2.889462262389223E+01  5.378811643366541E+00
   3.094768969001536E-03 -1.388566962535190E-03 -8.108254576186049E-04
2452194.500000000 = A.D. 2001-Oct-12 00:00:00.0000 TDB 
  -7.890874975484625E+00 -2.890162038268243E+01  5.374839727888907E+00
   3.057193861276888E-03 -1.404961597390735E-03 -7.730973816849295E-04
2452199.500000000 = A.D. 2001-Oct-17 00:00:00.0000 TDB 
  -7.875636711660353E+00 -2.890861106126007E+01  5.371107236732982E+00
   3.043772822248415E-03 -1.385491788662615E-03 -7.205489918396717E-04
2452204.500000000 = A.D. 2001-Oct-22 00:00:00.0000 TDB 
  -7.860380039180203E+00 -2.891543352515878E+01  5.367600559563733E+00
   3.064150601714779E-03 -1.341272603202296E-03 -6.877898384806510E-04
2452209.500000000 = A.D. 2001-Oct-27 00:00:00.0000 TDB 
  -7.844960330637171E+00 -2.892203033875009E+01  5.364157850481855E+00
   3.105051745197203E-03 -1.300440198081640E-03 -6.963615439352384E-04
2452214.500000000 = A.D. 2001-Nov-01 00:00:00.0000 TDB 
  -7.829338428059186E+00 -2.892848625698897E+01  5.360575545795353E+00
   3.140351676224061E-03 -1.288005505431667E-03 -7.403580182570730E-04
2452219.500000000 = A.D. 2001-Nov-06 00:00:00.0000 TDB 
  -7.813603648490545E+00 -2.893496937704186E+01  5.356742370109985E+00
   3.147929961541294E-03 -1.310488926674039E-03 -7.914061446160609E-04
2452224.500000000 = A.D. 2001-Nov-11 00:00:00.0000 TDB 
  -7.797913174640631E+00 -2.894162329543639E+01  5.352704904443701E+00
   3.123796364687364E-03 -1.352239029727341E-03 -8.176138004056461E-04
2452229.500000000 = A.D. 2001-Nov-16 00:00:00.0000 TDB 
  -7.782394712012637E+00 -2.894847947979293E+01  5.348636637013017E+00
   3.083039616612692E-03 -1.386565303300797E-03 -8.028923594988379E-04
2452234.500000000 = A.D. 2001-Nov-21 00:00:00.0000 TDB 
  -7.767067273621233E+00 -2.895543747746543E+01  5.344730766641479E+00
   3.051628029560663E-03 -1.390361661525131E-03 -7.559343965787887E-04
2452239.500000000 = A.D. 2001-Nov-26 00:00:00.0000 TDB 
  -7.751826593877715E+00 -2.896232475023723E+01  5.341079422218670E+00
   3.050427675749443E-03 -1.359711851966365E-03 -7.070302957389809E-04
2452244.500000000 = A.D. 2001-Dec-01 00:00:00.0000 TDB 
  -7.736508447715476E+00 -2.896900710143789E+01  5.337608735815582E+00
   3.080806507667901E-03 -1.313159174488401E-03 -6.880914349792607E-04
2452249.500000000 = A.D. 2001-Dec-06 00:00:00.0000 TDB 
  -7.720997899486862E+00 -2.897547909099976E+01  5.334126197620997E+00
   3.123101033301831E-03 -1.280223814623639E-03 -7.116818694194724E-04
2452254.500000000 = A.D. 2001-Dec-11 00:00:00.0000 TDB 
  -7.705303829870652E+00 -2.898186608440045E+01  5.330447817606936E+00
   3.150161000532342E-03 -1.280742995865310E-03 -7.618480961676782E-04
2452259.500000000 = A.D. 2001-Dec-16 00:00:00.0000 TDB 
  -7.689550669224470E+00 -2.898834057692507E+01  5.326516850880376E+00
   3.145606708639546E-03 -1.312854334841345E-03 -8.069684017090018E-04
2452264.500000000 = A.D. 2001-Dec-21 00:00:00.0000 TDB 
  -7.673896241095253E+00 -2.899501279990133E+01  5.322434036676399E+00
   3.112735181049822E-03 -1.355346796918182E-03 -8.190596502363521E-04
2452269.500000000 = A.D. 2001-Dec-26 00:00:00.0000 TDB 
  -7.658435907369622E+00 -2.900186510677885E+01  5.318394311981127E+00
   3.072304368836936E-03 -1.380673779746523E-03 -7.906183667146707E-04
2452274.500000000 = A.D. 2001-Dec-31 00:00:00.0000 TDB 
  -7.643141423211868E+00 -2.900876002730621E+01  5.314566942357834E+00
   3.050249933728210E-03 -1.371273373070229E-03 -7.390791998413254E-04
2452279.500000000 = A.D. 2002-Jan-05 00:00:00.0000 TDB 
  -7.627876210619569E+00 -2.901552569764923E+01  5.310986417167371E+00
   3.061560050919989E-03 -1.331668457391866E-03 -6.978551634611676E-04
2452284.500000000 = A.D. 2002-Jan-10 00:00:00.0000 TDB 
  -7.612481055799383E+00 -2.902206692267824E+01  5.307525641100369E+00
   3.099252011790631E-03 -1.286560646670772E-03 -6.940280438982790E-04
2452289.500000000 = A.D. 2002-Jan-15 00:00:00.0000 TDB 
  -7.596880969623741E+00 -2.902843085996671E+01  5.303978462523032E+00
   3.138867839578822E-03 -1.264422036526086E-03 -7.300962785247942E-04
2452294.500000000 = A.D. 2002-Jan-20 00:00:00.0000 TDB 
  -7.581132106434262E+00 -2.903477239202936E+01  5.300196743725748E+00
   3.155385740413377E-03 -1.277852158929316E-03 -7.823411492552208E-04
2452299.500000000 = A.D. 2002-Jan-25 00:00:00.0000 TDB 
  -7.565382444411577E+00 -2.904125346025740E+01  5.296181726208261E+00
   3.139217065094856E-03 -1.316957414089642E-03 -8.182560616698184E-04
2452304.500000000 = A.D. 2002-Jan-30 00:00:00.0000 TDB 
  -7.549777481262091E+00 -2.904794189108975E+01  5.292079949860186E+00
   3.100729363412853E-03 -1.356217516041418E-03 -8.153947502115826E-04
2452309.500000000 = A.D. 2002-Feb-04 00:00:00.0000 TDB 
  -7.534371452387116E+00 -2.905477142791228E+01  5.288091585761047E+00
   3.064302215887923E-03 -1.369896111280178E-03 -7.754672170300171E-04
2452314.500000000 = A.D. 2002-Feb-09 00:00:00.0000 TDB 
  -7.519091494712680E+00 -2.906157966562744E+01  5.284347448215790E+00
   3.053435339821810E-03 -1.347781589593195E-03 -7.233168443552901E-04
2452319.500000000 = A.D. 2002-Feb-14 00:00:00.0000 TDB 
  -7.503780339776842E+00 -2.906821045826130E+01  5.280820848105362E+00
   3.076113415997530E-03 -1.302690208262804E-03 -6.932839067026707E-04
2452324.500000000 = A.D. 2002-Feb-19 00:00:00.0000 TDB 
  -7.488298537085850E+00 -2.907461714070894E+01  5.277342207317558E+00
   3.117588755846645E-03 -1.263296681574088E-03 -7.051547523635395E-04
2452329.500000000 = A.D. 2002-Feb-24 00:00:00.0000 TDB 
  -7.472617023064394E+00 -2.908089427844297E+01  5.273710414293826E+00
   3.151362318073110E-03 -1.253709408154542E-03 -7.509506013027384E-04
2452334.500000000 = A.D. 2002-Mar-01 00:00:00.0000 TDB 
  -7.456833688954624E+00 -2.908721254193565E+01  5.269825277813540E+00
   3.156262691472172E-03 -1.278630564696605E-03 -8.011278867816754E-04
2452339.500000000 = A.D. 2002-Mar-06 00:00:00.0000 TDB 
  -7.441107373235663E+00 -2.909370924568901E+01  5.265746129832415E+00
   3.130011155190792E-03 -1.320831935322838E-03 -8.243426435228481E-04
2452344.500000000 = A.D. 2002-Mar-11 00:00:00.0000 TDB 
  -7.425559300035536E+00 -2.910040457113205E+01  5.261652701912371E+00
   3.089035598824673E-03 -1.353327113642594E-03 -8.064016868336666E-04
2452349.500000000 = A.D. 2002-Mar-16 00:00:00.0000 TDB 
  -7.410198090326678E+00 -2.910718915631194E+01  5.257733821513858E+00
   3.059434646988171E-03 -1.354186772937953E-03 -7.580726857301048E-04
2452354.500000000 = A.D. 2002-Mar-21 00:00:00.0000 TDB 
  -7.394911815442214E+00 -2.911388955767723E+01  5.254069522258799E+00
   3.060879328143305E-03 -1.321390610998097E-03 -7.105036277453708E-04
2452359.500000000 = A.D. 2002-Mar-26 00:00:00.0000 TDB 
  -7.379536238817433E+00 -2.912037931500960E+01  5.250573821125355E+00
   3.093058463236325E-03 -1.274832774435633E-03 -6.947600050174928E-04
2452364.500000000 = A.D. 2002-Mar-31 00:00:00.0000 TDB 
  -7.363963984108882E+00 -2.912666429654560E+01  5.247049847291771E+00
   3.135140060279896E-03 -1.244043468132758E-03 -7.213614939378679E-04
2452369.500000000 = A.D. 2002-Apr-05 00:00:00.0000 TDB 
  -7.348214302227466E+00 -2.913287767907729E+01  5.243319660129071E+00
   3.160111628135852E-03 -1.247474383227382E-03 -7.724361759426021E-04
2452374.500000000 = A.D. 2002-Apr-10 00:00:00.0000 TDB 
  -7.332418204414764E+00 -2.913919117256083E+01  5.239339311240987E+00
   3.152885731850409E-03 -1.281416962643471E-03 -8.157510785778532E-04
2452379.500000000 = A.D. 2002-Apr-15 00:00:00.0000 TDB 
  -7.316732045375865E+00 -2.914570615818075E+01  5.235220783383045E+00
   3.118477561632998E-03 -1.323466235114225E-03 -8.244797924086794E-04
